start=new Date('2021-12-23T00:00:00.000Z').valueOf();
sats=[{"RA_OF_ASC_NODE":"106.3246","FILE":"3247523","MEAN_MOTION":"15.06392470","NORAD_CAT_ID":"47399","PERIOD":"95.593","MEAN_ANOMALY":"259.3619","CLASSIFICATION_TYPE":"U","COUNTRY_CODE":"US","ELEMENT_SET_NO":"999","OBJECT_ID":"2021-005BC","ARG_OF_PERICENTER":"100.7520","EPHEMERIS_TYPE":"0","PERIAPSIS":"546.310","RCS_SIZE":"LARGE","REF_FRAME":"TEME","TLE_LINE1":"1 47399U 21005BC  21356.60990222  .00000124  00000-0  27234-4 0  9996","MEAN_MOTION_DDOT":"0.0000000000000","BSTAR":"0.00002723400000","GP_ID":"192218918","INCLINATION":"53.0559","CENTER_NAME":"EARTH","LAUNCH_DATE":"2021-01-20","TIME_SYSTEM":"UTC","SITE":"AFETR","DECAY_DATE":null,"EPOCH":"2021-12-22T14:38:15.551808","MEAN_ELEMENT_THEORY":"SGP4","TLE_LINE2":"2 47399  53.0559 106.3246 0001338 100.7520 259.3619 15.06392470 51494","APOAPSIS":"548.163","MEAN_MOTION_DOT":"0.00000124","REV_AT_EPOCH":"5149","ECCENTRICITY":"0.00013380","OBJECT_TYPE":"PAYLOAD","SEMIMAJOR_AXIS":"6925.372","OBJECT_NAME":"STARLINK-2121"},{"TLE_LINE2":"2 47400  53.0545  86.6885 0001357  98.0561 262.0582 15.06397695 51760","APOAPSIS":"548.160","MEAN_MOTION_DOT":"-0.00001004","REV_AT_EPOCH":"5176","ECCENTRICITY":"0.00013570","OBJECT_TYPE":"PAYLOAD","SEMIMAJOR_AXIS":"6925.356","OBJECT_NAME":"STARLINK-2122","INCLINATION":"53.0545","CENTER_NAME":"EARTH","LAUNCH_DATE":"2021-01-20","TIME_SYSTEM":"UTC","SITE":"AFETR","DECAY_DATE":null,"EPOCH":"2021-12-22T12:38:49.814880","MEAN_ELEMENT_THEORY":"SGP4","ELEMENT_SET_NO":"999","OBJECT_ID":"2021-005BD","ARG_OF_PERICENTER":"98.0561","EPHEMERIS_TYPE":"0","PERIAPSIS":"546.281","RCS_SIZE":"LARGE","REF_FRAME":"TEME","TLE_LINE1":"1 47400U 21005BD  21356.52696545 -.00001004  00000-0 -48508-4 0  9998","MEAN_MOTION_DDOT":"0.0000000000000","BSTAR":"-0.00004850800000","GP_ID":"192217666","RA_OF_ASC_NODE":"86.6885","FILE":"3247523","MEAN_MOTION":"15.06397695","PERIOD":"95.592","NORAD_CAT_ID":"47400","MEAN_ANOMALY":"262.0582","CLASSIFICATION_TYPE":"U","COUNTRY_CODE":"US"},{"RA_OF_ASC_NODE":"96.6234","FILE":"3247523","MEAN_MOTION":"15.06389243","NORAD_CAT_ID":"47401","PERIOD":"95.593","MEAN_ANOMALY":"263.5577","CLASSIFICATION_TYPE":"U","COUNTRY_CODE":"US","OBJECT_ID":"2021-005BE","ELEMENT_SET_NO":"999","EPHEMERIS_TYPE":"0","ARG_OF_PERICENTER":"96.5585","PERIAPSIS":"546.198","RCS_SIZE":"LARGE","REF_FRAME":"TEME","TLE_LINE1":"1 47401U 21005BE  21356.54541984 -.00001834  00000-0 -10427-3 0  9996","MEAN_MOTION_DDOT":"0.0000000000000","BSTAR":"-0.00010427000000","GP_ID":"192218416","INCLINATION":"53.0544","CENTER_NAME":"EARTH","TIME_SYSTEM":"UTC","LAUNCH_DATE":"2021-01-20","SITE":"AFETR","DECAY_DATE":null,"EPOCH":"2021-12-22T13:05:24.274176","MEAN_ELEMENT_THEORY":"SGP4","TLE_LINE2":"2 47401  53.0544  96.6234 0001514  96.5585 263.5577 15.06389243 51639","APOAPSIS":"548.295","MEAN_MOTION_DOT":"-0.00001834","REV_AT_EPOCH":"5163","ECCENTRICITY":"0.00015140","OBJECT_TYPE":"PAYLOAD","SEMIMAJOR_AXIS":"6925.382","OBJECT_NAME":"STARLINK-2123"},{"LAUNCH_DATE":"2021-01-20","TIME_SYSTEM":"UTC","CENTER_NAME":"EARTH","INCLINATION":"53.0539","MEAN_ELEMENT_THEORY":"SGP4","EPOCH":"2021-12-22T13:31:56.885376","DECAY_DATE":null,"SITE":"AFETR","OBJECT_TYPE":"PAYLOAD","ECCENTRICITY":"0.00013560","REV_AT_EPOCH":"5163","MEAN_MOTION_DOT":"-0.00001476","APOAPSIS":"548.176","TLE_LINE2":"2 47402  53.0539  96.5361 0001356  96.0059 264.1085 15.06392294 51630","OBJECT_NAME":"STARLINK-2124","SEMIMAJOR_AXIS":"6925.372","NORAD_CAT_ID":"47402","PERIOD":"95.593","MEAN_MOTION":"15.06392294","FILE":"3247523","RA_OF_ASC_NODE":"96.5361","COUNTRY_CODE":"US","CLASSIFICATION_TYPE":"U","MEAN_ANOMALY":"264.1085","RCS_SIZE":"LARGE","PERIAPSIS":"546.298","ARG_OF_PERICENTER":"96.0059","EPHEMERIS_TYPE":"0","ELEMENT_SET_NO":"999","OBJECT_ID":"2021-005BF","GP_ID":"192218668","BSTAR":"-0.00008023100000","MEAN_MOTION_DDOT":"0.0000000000000","TLE_LINE1":"1 47402U 21005BF  21356.56385284 -.00001476  00000-0 -80231-4 0  9991","REF_FRAME":"TEME"},{"BSTAR":"0.00006359000000","GP_ID":"192219419","TLE_LINE1":"1 47403U 21005BG  21356.57121768  .00000666  00000-0  63590-4 0  9995","MEAN_MOTION_DDOT":"0.0000000000000","REF_FRAME":"TEME","RCS_SIZE":"LARGE","EPHEMERIS_TYPE":"0","ARG_OF_PERICENTER":"100.3610","PERIAPSIS":"546.182","OBJECT_ID":"2021-005BG","ELEMENT_SET_NO":"999","COUNTRY_CODE":"US","CLASSIFICATION_TYPE":"U","MEAN_ANOMALY":"259.7548","PERIOD":"95.592","NORAD_CAT_ID":"47403","MEAN_MOTION":"15.06398204","FILE":"3247523","RA_OF_ASC_NODE":"96.5132","OBJECT_NAME":"STARLINK-2127","SEMIMAJOR_AXIS":"6925.354","ECCENTRICITY":"0.00014970","OBJECT_TYPE":"PAYLOAD","REV_AT_EPOCH":"5163","MEAN_MOTION_DOT":"0.00000666","TLE_LINE2":"2 47403  53.0558  96.5132 0001497 100.3610 259.7548 15.06398204 51637","APOAPSIS":"548.256","MEAN_ELEMENT_THEORY":"SGP4","DECAY_DATE":null,"EPOCH":"2021-12-22T13:42:33.207552","SITE":"AFETR","TIME_SYSTEM":"UTC","LAUNCH_DATE":"2021-01-20","CENTER_NAME":"EARTH","INCLINATION":"53.0558"},{"INCLINATION":"53.0564","CENTER_NAME":"EARTH","TIME_SYSTEM":"UTC","LAUNCH_DATE":"2021-01-20","SITE":"AFETR","EPOCH":"2021-12-22T13:37:15.692736","DECAY_DATE":null,"MEAN_ELEMENT_THEORY":"SGP4","APOAPSIS":"548.202","TLE_LINE2":"2 47404  53.0564  96.5276 0001368  88.3103 271.8043 15.06386751 51632","MEAN_MOTION_DOT":"-0.00001593","REV_AT_EPOCH":"5163","OBJECT_TYPE":"PAYLOAD","ECCENTRICITY":"0.00013680","SEMIMAJOR_AXIS":"6925.389","OBJECT_NAME":"STARLINK-2128","RA_OF_ASC_NODE":"96.5276","FILE":"3247523","MEAN_MOTION":"15.06386751","PERIOD":"95.593","NORAD_CAT_ID":"47404","MEAN_ANOMALY":"271.8043","CLASSIFICATION_TYPE":"U","COUNTRY_CODE":"US","ELEMENT_SET_NO":"999","OBJECT_ID":"2021-005BH","PERIAPSIS":"546.307","ARG_OF_PERICENTER":"88.3103","EPHEMERIS_TYPE":"0","RCS_SIZE":"LARGE","REF_FRAME":"TEME","MEAN_MOTION_DDOT":"0.0000000000000","TLE_LINE1":"1 47404U 21005BH  21356.56754274 -.00001593  00000-0 -88101-4 0  9996","GP_ID":"192218167","BSTAR":"-0.00008810100000"},{"INCLINATION":"53.0468","LAUNCH_DATE":"2021-01-20","TIME_SYSTEM":"UTC","CENTER_NAME":"EARTH","EPOCH":"2021-12-22T13:12:02.688768","DECAY_DATE":null,"SITE":"AFETR","MEAN_ELEMENT_THEORY":"SGP4","MEAN_MOTION_DOT":"-0.00000743","APOAPSIS":"548.176","TLE_LINE2":"2 47405  53.0468 126.6250 0001360  93.0395 267.0749 15.06393433 51209","OBJECT_TYPE":"PAYLOAD","ECCENTRICITY":"0.00013600","REV_AT_EPOCH":"5120","SEMIMAJOR_AXIS":"6925.369","OBJECT_NAME":"STARLINK-2130","FILE":"3247523","RA_OF_ASC_NODE":"126.6250","PERIOD":"95.593","NORAD_CAT_ID":"47405","MEAN_MOTION":"15.06393433","MEAN_ANOMALY":"267.0749","COUNTRY_CODE":"US","CLASSIFICATION_TYPE":"U","ELEMENT_SET_NO":"999","OBJECT_ID":"2021-005BJ","RCS_SIZE":"LARGE","PERIAPSIS":"546.292","EPHEMERIS_TYPE":"0","ARG_OF_PERICENTER":"93.0395","REF_FRAME":"TEME","GP_ID":"192217916","BSTAR":"-0.00003102000000","MEAN_MOTION_DDOT":"0.0000000000000","TLE_LINE1":"1 47405U 21005BJ  21356.55003112 -.00000743  00000-0 -31020-4 0  9998"},{"RA_OF_ASC_NODE":"96.7604","FILE":"3247523","MEAN_MOTION":"15.06389242","PERIOD":"95.593","NORAD_CAT_ID":"47406","MEAN_ANOMALY":"259.7353","CLASSIFICATION_TYPE":"U","COUNTRY_CODE":"US","OBJECT_ID":"2021-005BK","ELEMENT_SET_NO":"999","EPHEMERIS_TYPE":"0","ARG_OF_PERICENTER":"100.3783","PERIAPSIS":"546.339","RCS_SIZE":"LARGE","REF_FRAME":"TEME","TLE_LINE1":"1 47406U 21005BK  21356.51224849 -.00001778  00000-0 -10052-3 0  9997","MEAN_MOTION_DDOT":"0.0000000000000","BSTAR":"-0.00010052000000","GP_ID":"192219169","INCLINATION":"53.0550","CENTER_NAME":"EARTH","TIME_SYSTEM":"UTC","LAUNCH_DATE":"2021-01-20","SITE":"AFETR","DECAY_DATE":null,"EPOCH":"2021-12-22T12:17:38.269536","MEAN_ELEMENT_THEORY":"SGP4","TLE_LINE2":"2 47406  53.0550  96.7604 0001311 100.3783 259.7353 15.06389242 51629","APOAPSIS":"548.154","MEAN_MOTION_DOT":"-0.00001778","REV_AT_EPOCH":"5162","ECCENTRICITY":"0.00013110","OBJECT_TYPE":"PAYLOAD","SEMIMAJOR_AXIS":"6925.382","OBJECT_NAME":"STARLINK-2133"},{"REF_FRAME":"TEME","BSTAR":"-0.00007090600000","GP_ID":"192218919","TLE_LINE1":"1 47407U 21005BL  21356.58597740 -.00001337  00000-0 -70906-4 0  9994","MEAN_MOTION_DDOT":"0.0000000000000","OBJECT_ID":"2021-005BL","ELEMENT_SET_NO":"999","RCS_SIZE":"LARGE","ARG_OF_PERICENTER":"62.6116","EPHEMERIS_TYPE":"0","PERIAPSIS":"546.476","MEAN_ANOMALY":"297.4989","COUNTRY_CODE":"US","CLASSIFICATION_TYPE":"U","FILE":"3247523","RA_OF_ASC_NODE":"96.4482","NORAD_CAT_ID":"47407","PERIOD":"95.593","MEAN_MOTION":"15.06381673","SEMIMAJOR_AXIS":"6925.405","OBJECT_NAME":"STARLINK-2134","MEAN_MOTION_DOT":"-0.00001337","TLE_LINE2":"2 47407  53.0545  96.4482 0001146  62.6116 297.4989 15.06381673 51636","APOAPSIS":"548.063","OBJECT_TYPE":"PAYLOAD","ECCENTRICITY":"0.00011460","REV_AT_EPOCH":"5163","DECAY_DATE":null,"EPOCH":"2021-12-22T14:03:48.447360","SITE":"AFETR","MEAN_ELEMENT_THEORY":"SGP4","INCLINATION":"53.0545","LAUNCH_DATE":"2021-01-20","TIME_SYSTEM":"UTC","CENTER_NAME":"EARTH"},{"MEAN_ELEMENT_THEORY":"SGP4","SITE":"AFETR","DECAY_DATE":null,"EPOCH":"2021-12-22T13:21:19.558368","CENTER_NAME":"EARTH","LAUNCH_DATE":"2021-01-20","TIME_SYSTEM":"UTC","INCLINATION":"53.0547","OBJECT_NAME":"STARLINK-2135","SEMIMAJOR_AXIS":"6925.368","REV_AT_EPOCH":"5163","ECCENTRICITY":"0.00013530","OBJECT_TYPE":"PAYLOAD","TLE_LINE2":"2 47408  53.0547  96.5622 0001353  93.5174 266.5969 15.06393569 51635","APOAPSIS":"548.170","MEAN_MOTION_DOT":"-0.00000944","CLASSIFICATION_TYPE":"U","COUNTRY_CODE":"US","MEAN_ANOMALY":"266.5969","MEAN_MOTION":"15.06393569","PERIOD":"95.593","NORAD_CAT_ID":"47408","RA_OF_ASC_NODE":"96.5622","FILE":"3247523","TLE_LINE1":"1 47408U 21005BM  21356.55647637 -.00000944  00000-0 -44497-4 0  9992","MEAN_MOTION_DDOT":"0.0000000000000","BSTAR":"-0.00004449700000","GP_ID":"192217667","REF_FRAME":"TEME","ARG_OF_PERICENTER":"93.5174","EPHEMERIS_TYPE":"0","PERIAPSIS":"546.296","RCS_SIZE":"LARGE","ELEMENT_SET_NO":"999","OBJECT_ID":"2021-005BM"}];
